[{"OBJECT_NAME":"CENTISPACE-1 S5","OBJECT_ID":"2022-126A","EPOCH":"2026-03-09T22:34:18.497568","MEAN_MOTION":14.62805573,"ECCENTRICITY":0.00117151,"INCLINATION":54.9978,"RA_OF_ASC_NODE":250.0528,"ARG_OF_PERICENTER":192.3608,"MEAN_ANOMALY":167.71,"EPHEMERIS_TYPE":0,"CLASSIFICATION_TYPE":"U","NORAD_CAT_ID":54020,"ELEMENT_SET_NO":999,"REV_AT_EPOCH":18251,"BSTAR":0.00028330925,"MEAN_MOTION_DOT":1.269e-5,"MEAN_MOTION_DDOT":0},{"OBJECT_NAME":"CZ-6A DEB","OBJECT_ID":"2024-140DY","EPOCH":"2026-03-09T15:52:23.995776","MEAN_MOTION":14.51974055,"ECCENTRICITY":0.01252205,"INCLINATION":89.2104,"RA_OF_ASC_NODE":297.6249,"ARG_OF_PERICENTER":291.1512,"MEAN_ANOMALY":67.6351,"EPHEMERIS_TYPE":0,"CLASSIFICATION_TYPE":"U","NORAD_CAT_ID":60719,"ELEMENT_SET_NO":999,"REV_AT_EPOCH":8313,"BSTAR":0.0010019645,"MEAN_MOTION_DOT":4.495e-5,"MEAN_MOTION_DDOT":0}]
